{
    "links": {
        "self": "http://www.neowsapp.com/rest/v1/neo/3398653?api_key=iIulBulltgU6a56xZRHN4H3l9WmuAYTsLGpBGhQ2"
    },
    "id": "3398653",
    "neo_reference_id": "3398653",
    "name": "(2007 YR56)",
    "designation": "2007 YR56",
    "nasa_jpl_url": "http://ssd.jpl.nasa.gov/sbdb.cgi?sstr=3398653",
    "absolute_magnitude_h": 26.1,
    "estimated_diameter": {
        "kilometers": {
            "estimated_diameter_min": 0.0160160338,
            "estimated_diameter_max": 0.0358129403
        },
        "meters": {
            "estimated_diameter_min": 16.0160337979,
            "estimated_diameter_max": 35.8129403019
        },
        "miles": {
            "estimated_diameter_min": 0.0099518989,
            "estimated_diameter_max": 0.0222531225
        },
        "feet": {
            "estimated_diameter_min": 52.5460443254,
            "estimated_diameter_max": 117.4965270602
        }
    },
    "is_potentially_hazardous_asteroid": false,
    "close_approach_data": [
        {
            "close_approach_date": "2007-12-30",
            "close_approach_date_full": "2007-Dec-30 00:51",
            "epoch_date_close_approach": 1198975860000,
            "relative_velocity": {
                "kilometers_per_second": "10.013578716",
                "kilometers_per_hour": "36048.8833775042",
                "miles_per_hour": "22399.3742297609"
            },
            "miss_distance": {
                "astronomical": "0.0250264092",
                "lunar": "9.7352731788",
                "kilometers": "3743897.510068404",
                "miles": "2326350.0384718152"
            },
            "orbiting_body": "Earth"
        }
    ],
    "orbital_data": {
        "orbit_id": "9",
        "orbit_determination_date": "2017-04-06 09:04:49",
        "first_observation_date": "2007-12-31",
        "last_observation_date": "2008-01-05",
        "data_arc_in_days": 5,
        "observations_used": 25,
        "orbit_uncertainty": "8",
        "minimum_orbit_intersection": ".0162259",
        "jupiter_tisserand_invariant": "3.632",
        "epoch_osculation": "2454467.5",
        "eccentricity": ".5161919877277048",
        "semi_major_axis": "2.014007751888333",
        "inclination": "10.33715970063947",
        "ascending_node_longitude": "97.61371992283271",
        "orbital_period": "1043.97508370602",
        "perihelion_distance": ".9743930871420883",
        "perihelion_argument": "336.1016919988202",
        "aphelion_distance": "3.053622416634577",
        "perihelion_time": "2454445.865476060441",
        "mean_anomaly": "7.460358719092222",
        "mean_motion": ".3448358161212349",
        "equinox": "J2000",
        "orbit_class": {
            "orbit_class_type": "APO",
            "orbit_class_description": "Near-Earth asteroid orbits which cross the Earth’s orbit similar to that of 1862 Apollo",
            "orbit_class_range": "a (semi-major axis) > 1.0 AU; q (perihelion) < 1.017 AU"
        }
    },
    "is_sentry_object": false
}